[{"OBJECT_NAME":"STARLINK-5860","OBJECT_ID":"2023-088E","EPOCH":"2026-03-09T12:53:25.027008","MEAN_MOTION":15.02736345,"ECCENTRICITY":0.00025465,"INCLINATION":43.0045,"RA_OF_ASC_NODE":108.5724,"ARG_OF_PERICENTER":284.5925,"MEAN_ANOMALY":75.4635,"EPHEMERIS_TYPE":0,"CLASSIFICATION_TYPE":"U","NORAD_CAT_ID":57052,"ELEMENT_SET_NO":999,"REV_AT_EPOCH":15034,"BSTAR":0.0019008825,"MEAN_MOTION_DOT":0.00025706,"MEAN_MOTION_DDOT":0},{"OBJECT_NAME":"CZ-2C DEB","OBJECT_ID":"2011-039F","EPOCH":"2026-03-09T17:45:14.166720","MEAN_MOTION":15.09482172,"ECCENTRICITY":0.00342492,"INCLINATION":97.9174,"RA_OF_ASC_NODE":359.6762,"ARG_OF_PERICENTER":347.2377,"MEAN_ANOMALY":72.5812,"EPHEMERIS_TYPE":0,"CLASSIFICATION_TYPE":"U","NORAD_CAT_ID":37770,"ELEMENT_SET_NO":999,"REV_AT_EPOCH":77853,"BSTAR":0.0024394871,"MEAN_MOTION_DOT":0.00039734,"MEAN_MOTION_DDOT":0}]
